[Satellite]
VERSION=1.1
NAME=SL-8 R/B
NICKNAME=SL-8 R/B
TLE1=1 02802U 67045B   19317.49297986  .00000009  00000-0  10652-4 0  9996
TLE2=2 02802  74.0114 329.6660 0066343 173.9214 186.2764 14.43752212755879
STATUS=0
